NORAD_CAT_ID,OBJECT_NAME,OBJECT_TYPE,EPOCH,MEAN_MOTION,ECCENTRICITY,INCLINATION,RA_OF_ASC_NODE,ARG_OF_PERICENTER,MEAN_ANOMALY,BSTAR,MEAN_MOTION_DOT,MEAN_MOTION_DDOT,TLE_LINE0,TLE_LINE1,TLE_LINE2,SEMIMAJOR_AXIS,PERIOD,APOGEE,PERIGEE,DECAYED
53915.0,STARLINK-5017,PAYLOAD,2022-12-05 22:00:01,15.49925568,0.0001328,53.2145,257.8899,67.3025,213.6111,-0.0023927,-0.00134143,0.0,0 STARLINK-5017,1 53915U 22119AF  22339.91668981 -.00134143  00000-0 -23927-2 0  9998,2 53915  53.2145 257.8899 0001328  67.3025 213.6111 15.49925568 11742,6795.081,92.908,417.848,416.043,0.0
53915.0,STARLINK-5017,PAYLOAD,2022-12-06 06:00:00,15.49827304,0.0001332,53.2155,256.2983,60.9304,280.8512,-0.011285,-0.00593394,0.0,0 STARLINK-5017,1 53915U 22119AF  22340.25001157 -.00593394  00000-0 -11285-1 0  9993,2 53915  53.2155 256.2983 0001332  60.9304 280.8512 15.49827304 11799,6795.368,92.914,418.138,416.328,0.0
53915.0,STARLINK-5017,PAYLOAD,2022-12-06 14:00:01,15.49427401,0.0001193,53.217,254.7026,41.8069,0.6644,-0.019404,-0.00990197,0.0,0 STARLINK-5017,1 53915U 22119AF  22340.58335648 -.00990197  00000-0 -19404-1 0  9997,2 53915  53.2170 254.7026 0001193  41.8069   0.6644 15.49427401 11853,6796.5369999999975,92.938,419.213,417.591,0.0
53915.0,STARLINK-5017,PAYLOAD,2022-12-06 22:00:00,15.48744627,0.000128,53.2168,253.1118,67.4261,34.9046,-0.02388,-0.01187401,0.0,0 STARLINK-5017,1 53915U 22119AF  22340.91667824 -.01187401  00000-0 -23880-1 0  9998,2 53915  53.2168 253.1118 0001280  67.4261  34.9046 15.48744627 11903,6798.534000000002,92.979,421.27,419.529,0.0
53915.0,STARLINK-5017,PAYLOAD,2022-12-08 00:00:00,15.46017241,0.0001179,53.2179,247.9539,60.8231,319.7469,-0.023462,-0.01055773,0.0,0 STARLINK-5017,1 53915U 22119AF  22342.00001157 -.01055773  00000-0 -23462-1 0  9993,2 53915  53.2179 247.9539 0001179  60.8231 319.7469 15.46017241  1303,6806.528,93.143,429.195,427.59,0.0
53915.0,STARLINK-5017,PAYLOAD,2022-12-08 06:00:00,15.4545823,0.0001101,53.2173,246.7672,69.8626,262.6472,-0.025667,-0.01142051,0.0,0 STARLINK-5017,1 53915U 22119AF  22342.25001157 -.01142051  00000-0 -25667-1 0  9995,2 53915  53.2173 246.7672 0001101  69.8626 262.6472 15.45458230 12100,6808.169,93.176,430.784,429.284,0.0
53915.0,STARLINK-5017,PAYLOAD,2022-12-08 14:00:01,15.44237403,0.0001585,53.2168,245.1842,39.2832,348.5338,-0.013016,-0.00565372,0.0,0 STARLINK-5017,1 53915U 22119AF  22342.58334491 -.00565372  00000-0 -13016-1 0  9990,2 53915  53.2168 245.1842 0001585  39.2832 348.5338 15.44237403  1303,6811.757,93.25,434.701,432.542,0.0
53915.0,STARLINK-5017,PAYLOAD,2022-12-08 22:00:01,15.43830603,0.0001557,53.2176,243.6055,42.2947,39.4958,-0.027163,-0.01143041,0.0,0 STARLINK-5017,1 53915U 22119AF  22342.91668981 -.01143041  00000-0 -27163-1 0  9995,2 53915  53.2176 243.6055 0001557  42.2947  39.4958 15.43830603  1305,6812.953,93.274,435.879,433.758,0.0
53915.0,STARLINK-5017,PAYLOAD,2022-12-09 14:00:01,15.42201958,0.0001428,53.2172,240.451,59.2219,127.8092,-0.028636,-0.01140487,0.0,0 STARLINK-5017,1 53915U 22119AF  22343.58334491 -.01140487  00000-0 -28636-1 0  9992,2 53915  53.2172 240.4510 0001428  59.2219 127.8092 15.42201958  1304,6817.749,93.373,440.588,438.64,0.0
53915.0,STARLINK-5017,PAYLOAD,2022-12-09 22:00:00,15.41398545,0.000132,53.2167,238.8787,74.7004,163.5099,-0.029809,-0.01154242,0.0,0 STARLINK-5017,1 53915U 22119AF  22343.91667824 -.01154242  00000-0 -29809-1 0  9995,2 53915  53.2167 238.8787 0001320  74.7004 163.5099 15.41398545 12360,6820.118,93.422,442.883,441.083,0.0
53915.0,STARLINK-5017,PAYLOAD,2022-12-10 14:00:01,15.3975891,0.0001095,53.2173,235.7355,76.4001,261.2537,-0.030979,-0.01137237,0.0,0 STARLINK-5017,1 53915U 22119AF  22344.58334491 -.01137237  00000-0 -30979-1 0  9995,2 53915  53.2173 235.7355 0001095  76.4001 261.2537 15.39758910  1307,6824.959,93.521,447.571,446.076,0.0
53915.0,STARLINK-5017,PAYLOAD,2022-12-10 22:00:00,15.38948199,0.0001368,53.2174,234.1691,49.3352,336.5681,-0.031958,-0.01141788,0.0,0 STARLINK-5017,1 53915U 22119AF  22344.91667824 -.01141788  00000-0 -31958-1 0  9995,2 53915  53.2174 234.1691 0001368  49.3352 336.5681 15.38948199 12526,6827.355,93.57,450.154,448.286,0.0
53915.0,STARLINK-5017,PAYLOAD,2022-12-11 00:00:00,15.3874474,0.0001582,53.2173,233.7778,50.2944,77.5188,-0.032174,-0.01141873,0.0,0 STARLINK-5017,1 53915U 22119AF  22345.00001157 -.01141873  00000-0 -32174-1 0  9993,2 53915  53.2173 233.7778 0001582  50.2944  77.5188 15.38744740  1306,6827.956999999999,93.583,450.902,448.742,0.0
53915.0,STARLINK-5017,PAYLOAD,2022-12-11 14:00:01,15.37319987,0.0001296,53.2173,231.0375,67.6879,51.7864,-0.033689,-0.01141079,0.0,0 STARLINK-5017,1 53915U 22119AF  22345.58334491 -.01141079  00000-0 -33689-1 0  9996,2 53915  53.2173 231.0375 0001296  67.6879  51.7864 15.37319987  1306,6832.175,93.67,454.926,453.155,0.0
53915.0,STARLINK-5017,PAYLOAD,2022-12-11 22:00:01,15.36504427,0.000149,53.2173,229.4769,60.0361,104.82,-0.034481,-0.01137688,0.0,0 STARLINK-5017,1 53915U 22119AF  22345.91668981 -.01137688  00000-0 -34481-1 0  9999,2 53915  53.2173 229.4769 0001490  60.0361 104.8200 15.36504427 12673,6834.593000000003,93.719,457.476,455.439,0.0
53915.0,STARLINK-5017,PAYLOAD,2022-12-12 14:00:01,15.34877552,0.0001299,53.2173,226.3567,77.2296,175.2657,-0.036369,-0.01138465,0.0,0 STARLINK-5017,1 53915U 22119AF  22346.58334491 -.01138465  00000-0 -36369-1 0  9990,2 53915  53.2173 226.3567 0001299  77.2296 175.2657 15.34877552  1305,6839.420999999999,93.819,462.175,460.398,0.0
53915.0,STARLINK-5017,PAYLOAD,2022-12-12 22:00:00,15.34063286,0.0001439,53.2173,224.8023,53.6746,241.2041,-0.037278,-0.01137051,0.0,0 STARLINK-5017,1 53915U 22119AF  22346.91667824 -.01137051  00000-0 -37278-1 0  9996,2 53915  53.2173 224.8023 0001439  53.6746 241.2041 15.34063286 12820,6841.840999999999,93.868,464.691,462.722,0.0
53915.0,STARLINK-5017,PAYLOAD,2022-12-13 14:00:01,15.32434727,0.0001235,53.2173,221.6935,59.4029,317.3128,-0.039201,-0.01135496,0.0,0 STARLINK-5017,1 53915U 22119AF  22347.58334491 -.01135496  00000-0 -39201-1 0  9990,2 53915  53.2173 221.6935 0001235  59.4029 317.3128 15.32434727 12932,6846.688,93.968,469.398,467.707,0.0
53915.0,STARLINK-5017,PAYLOAD,2022-12-13 22:00:00,15.31623959,0.0001551999999999,53.2175,220.1448,44.3148,11.8495,-0.04038,-0.01139796,0.0,0 STARLINK-5017,1 53915U 22119AF  22347.91667824 -.01139796  00000-0 -40380-1 0  9993,2 53915  53.2175 220.1448 0001552  44.3148  11.8495 15.31623959  1302,6849.104,94.018,472.032,469.906,0.0
53915.0,STARLINK-5017,PAYLOAD,2022-12-14 06:00:00,15.30808945,0.0001343,53.2172,218.5957,59.7562,34.8819,-0.041322,-0.01137139,0.0,0 STARLINK-5017,1 53915U 22119AF  22348.25001157 -.01137139  00000-0 -41322-1 0  9998,2 53915  53.2172 218.5957 0001343  59.7562  34.8819 15.30808945 13030,6851.534000000002,94.068,474.32,472.479,0.0
53915.0,STARLINK-5017,PAYLOAD,2022-12-14 14:00:01,15.29993403,0.0001639,53.217,217.048,49.7462,82.3882,-0.042286,-0.01134724,0.0,0 STARLINK-5017,1 53915U 22119AF  22348.58334491 -.01134724  00000-0 -42286-1 0  9991,2 53915  53.2170 217.0480 0001639  49.7462  82.3882 15.29993403  1306,6853.969,94.118,476.957,474.711,0.0
53915.0,STARLINK-5017,PAYLOAD,2022-12-14 22:00:00,15.29183796,0.0001406999999999,53.217,215.5046,69.069,99.5807,-0.043634,-0.01141151,0.0,0 STARLINK-5017,1 53915U 22119AF  22348.91667824 -.01141151  00000-0 -43634-1 0  9997,2 53915  53.2170 215.5046 0001407  69.0690  99.5807 15.29183796  1301,6856.388000000001,94.168,479.218,477.288,0.0
53915.0,STARLINK-5017,PAYLOAD,2022-12-15 06:00:00,15.28367967,0.0001406999999999,53.2173,213.9611,71.5769,132.6133,-0.044594,-0.01137566,0.0,0 STARLINK-5017,1 53915U 22119AF  22349.25001157 -.01137566  00000-0 -44594-1 0  9997,2 53915  53.2173 213.9611 0001407  71.5769 132.6133 15.28367967 13182,6858.828,94.218,481.658,479.728,0.0
53915.0,STARLINK-5017,PAYLOAD,2022-12-15 14:00:01,15.2755348,0.0001458,53.2174,212.4188,62.4677,176.285,-0.045667,-0.01136263,0.0,0 STARLINK-5017,1 53915U 22119AF  22349.58334491 -.01136263  00000-0 -45667-1 0  9998,2 53915  53.2174 212.4188 0001458  62.4677 176.2850 15.27553480  1306,6861.266,94.268,484.131,482.13,0.0
53915.0,STARLINK-5017,PAYLOAD,2022-12-15 22:00:00,15.26738948,0.0001473,53.2175,210.8817,58.8168,213.5188,-0.046759,-0.01134931,0.0,0 STARLINK-5017,1 53915U 22119AF  22349.91667824 -.01134931  00000-0 -46759-1 0  9997,2 53915  53.2175 210.8817 0001473  58.8168 213.5188 15.26738948  1301,6863.706,94.319,486.582,484.56,0.0
53915.0,STARLINK-5017,PAYLOAD,2022-12-16 06:00:00,15.25927496,0.0001388,53.2173,209.3437,54.3605,250.5809,-0.04811,-0.0115404,0.0,0 STARLINK-5017,1 53915U 22119AF  22350.25001157 -.01154040  00000-0 -48110-1 0  9993,2 53915  53.2173 209.3437 0001388  54.3605 250.5809 15.25927496 13336,6866.139,94.369,488.957,487.051,0.0
53915.0,STARLINK-5017,PAYLOAD,2022-12-16 14:00:01,15.25124388,0.0001321,53.2166,207.8078,60.9303,275.6337,-0.049911,-0.01167369,0.0,0 STARLINK-5017,1 53915U 22119AF  22350.58334491 -.01167369  00000-0 -49911-1 0  9997,2 53915  53.2166 207.8078 0001321  60.9303 275.6337 15.25124388  1304,6868.549,94.419,491.321,489.507,0.0
53915.0,STARLINK-5017,PAYLOAD,2022-12-16 22:00:00,15.2429964,0.0001395,53.2175,206.276,53.4874,313.7318,-0.050484,-0.01152996,0.0,0 STARLINK-5017,1 53915U 22119AF  22350.91667824 -.01152996  00000-0 -50484-1 0  9990,2 53915  53.2175 206.2760 0001395  53.4874 313.7318 15.24299640  1302,6871.026,94.47,493.85,491.9330000000001,0.0
53915.0,STARLINK-5017,PAYLOAD,2022-12-17 06:00:00,15.23485155,0.0001378,53.2174,204.7436,51.3863,345.5063,-0.051676,-0.01151849,0.0,0 STARLINK-5017,1 53915U 22119AF  22351.25001157 -.01151849  00000-0 -51676-1 0  9999,2 53915  53.2174 204.7436 0001378  51.3863 345.5063 15.23485155 13490,6873.475,94.52,496.287,494.393,0.0
